ORBCOMM FM24            
1 25478U 98053D   25204.91578096  .00000943  00000+0  35426-3 0  9997
2 25478  45.0081  94.9410 0003077  35.6222 324.4832 14.38163302402733
ORBCOMM FM25            
1 25479U 98053E   25204.67943451  .00000955  00000+0  35853-3 0  9999
2 25479  45.0072  94.3372 0005107  54.5229 305.6095 14.38135183402994
ORBCOMM FM27            
1 25481U 98053G   25204.38849107  .00000988  00000+0  36892-3 0  9993
2 25481  45.0056  95.9068 0001715  22.2451 337.8472 14.38165965402883
ORBCOMM FM28            
1 25482U 98053H   25204.90766855  .00000731  00000+0  28400-3 0  9992
2 25482  45.0067  30.8927 0005170 122.5339 237.6009 14.38347396403644
ORBCOMM FM30            
1 25980U 99065A   25204.56167252  .00000634  00000+0  25741-3 0  9994
2 25980  45.0314 277.5370 0008100 203.1948 156.8536 14.37353421339686
ORBCOMM FM31            
1 25981U 99065B   25204.53649085  .00000528  00000+0  22262-3 0  9998
2 25981  45.0223 271.1362 0005982 226.5944 133.4406 14.37290455340201
ORBCOMM FM32            
1 25982U 99065C   25204.53761809  .00000640  00000+0  26480-3 0  9999
2 25982  45.0160 287.9541 0008194 217.1996 142.8285 14.36336488339828
